CCSDS_OMM_VERS = 2.0
CREATION_DATE  = 
ORIGINATOR     = 

OBJECT_NAME    = HRC MONOBLOCK CAMERA
OBJECT_ID      = 1998-067XR
CENTER_NAME    = EARTH
REF_FRAME      = TEME
TIME_SYSTEM    = UTC
MEAN_ELEMENT_THEORY = SGP/SGP4

EPOCH          = 2026-03-15T21:41:39.496704
MEAN_MOTION    = 15.62929545
ECCENTRICITY   = .00037889
INCLINATION    = 51.6280
RA_OF_ASC_NODE = 34.1527
ARG_OF_PERICENTER = 120.0047
MEAN_ANOMALY   = 240.1323

EPHEMERIS_TYPE = 0
CLASSIFICATION_TYPE = U
NORAD_CAT_ID   = 66052
ELEMENT_SET_NO = 999
REV_AT_EPOCH   = 2336
BSTAR          = .53288764E-3
MEAN_MOTION_DOT = .48968E-3
MEAN_MOTION_DDOT = 0

CCSDS_OMM_VERS = 2.0
CREATION_DATE  = 
ORIGINATOR     = 

OBJECT_NAME    = HTV-X1
OBJECT_ID      = 2025-241A
CENTER_NAME    = EARTH
REF_FRAME      = TEME
TIME_SYSTEM    = UTC
MEAN_ELEMENT_THEORY = SGP/SGP4

EPOCH          = 2026-03-14T08:15:41.723424
MEAN_MOTION    = 15.22910308
ECCENTRICITY   = .00057421
INCLINATION    = 51.6357
RA_OF_ASC_NODE = 50.7100
ARG_OF_PERICENTER = 187.4106
MEAN_ANOMALY   = 172.6788

EPHEMERIS_TYPE = 0
CLASSIFICATION_TYPE = U
NORAD_CAT_ID   = 66174
ELEMENT_SET_NO = 999
REV_AT_EPOCH   = 2166
BSTAR          = .58534113E-3
MEAN_MOTION_DOT = .13614E-3
MEAN_MOTION_DDOT = 0

CCSDS_OMM_VERS = 2.0
CREATION_DATE  = 
ORIGINATOR     = 

OBJECT_NAME    = SZ-21 MODULE
OBJECT_ID      = 2025-246C
CENTER_NAME    = EARTH
REF_FRAME      = TEME
TIME_SYSTEM    = UTC
MEAN_ELEMENT_THEORY = SGP/SGP4

EPOCH          = 2026-03-15T14:40:57.612288
MEAN_MOTION    = 15.69044572
ECCENTRICITY   = .00008196
INCLINATION    = 41.4740
RA_OF_ASC_NODE = 166.8918
ARG_OF_PERICENTER = 310.4718
MEAN_ANOMALY   = 49.6052

EPHEMERIS_TYPE = 0
CLASSIFICATION_TYPE = U
NORAD_CAT_ID   = 66515
ELEMENT_SET_NO = 999
REV_AT_EPOCH   = 1900
BSTAR          = .29227235E-3
MEAN_MOTION_DOT = .34609E-3
MEAN_MOTION_DDOT = 0

CCSDS_OMM_VERS = 2.0
CREATION_DATE  = 
ORIGINATOR     = 

OBJECT_NAME    = SHENZHOU-22
OBJECT_ID      = 2025-272A
CENTER_NAME    = EARTH
REF_FRAME      = TEME
TIME_SYSTEM    = UTC
MEAN_ELEMENT_THEORY = SGP/SGP4

EPOCH          = 2026-03-15T15:59:17.332512
MEAN_MOTION    = 15.61005371
ECCENTRICITY   = .00063677
INCLINATION    = 41.4669
RA_OF_ASC_NODE = 171.7890
ARG_OF_PERICENTER = 308.3503
MEAN_ANOMALY   = 51.6764

EPHEMERIS_TYPE = 0
CLASSIFICATION_TYPE = U
NORAD_CAT_ID   = 66645
ELEMENT_SET_NO = 999
REV_AT_EPOCH   = 26752
BSTAR          = .26859999E-3
MEAN_MOTION_DOT = .22966E-3
MEAN_MOTION_DDOT = 0

CCSDS_OMM_VERS = 2.0
CREATION_DATE  = 
ORIGINATOR     = 

OBJECT_NAME    = SOYUZ-MS 28
OBJECT_ID      = 2025-275A
CENTER_NAME    = EARTH
REF_FRAME      = TEME
TIME_SYSTEM    = UTC
MEAN_ELEMENT_THEORY = SGP/SGP4

EPOCH          = 2026-03-15T20:06:35.309952
MEAN_MOTION    = 15.48299420
ECCENTRICITY   = .00063362
INCLINATION    = 51.6331
RA_OF_ASC_NODE = 41.9615
ARG_OF_PERICENTER = 194.9995
MEAN_ANOMALY   = 165.0806

EPHEMERIS_TYPE = 0
CLASSIFICATION_TYPE = U
NORAD_CAT_ID   = 66664
ELEMENT_SET_NO = 999
REV_AT_EPOCH   = 55452
BSTAR          = .15761534E-3
MEAN_MOTION_DOT = .8038E-4
MEAN_MOTION_DDOT = 0

CCSDS_OMM_VERS = 2.0
CREATION_DATE  = 
ORIGINATOR     = 

OBJECT_NAME    = DUPLEX
OBJECT_ID      = 1998-067XS
CENTER_NAME    = EARTH
REF_FRAME      = TEME
TIME_SYSTEM    = UTC
MEAN_ELEMENT_THEORY = SGP/SGP4

EPOCH          = 2026-03-15T14:55:06.458592
MEAN_MOTION    = 15.56634012
ECCENTRICITY   = .00027941
INCLINATION    = 51.6294
RA_OF_ASC_NODE = 39.7700
ARG_OF_PERICENTER = 138.5108
MEAN_ANOMALY   = 221.6097

EPHEMERIS_TYPE = 0
CLASSIFICATION_TYPE = U
NORAD_CAT_ID   = 66906
ELEMENT_SET_NO = 999
REV_AT_EPOCH   = 1605
BSTAR          = .39788089E-3
MEAN_MOTION_DOT = .28497E-3
MEAN_MOTION_DDOT = 0

CCSDS_OMM_VERS = 2.0
CREATION_DATE  = 
ORIGINATOR     = 

OBJECT_NAME    = ISS OBJECT XT
OBJECT_ID      = 1998-067XT
CENTER_NAME    = EARTH
REF_FRAME      = TEME
TIME_SYSTEM    = UTC
MEAN_ELEMENT_THEORY = SGP/SGP4

EPOCH          = 2026-03-15T01:21:01.873152
MEAN_MOTION    = 15.71174897
ECCENTRICITY   = .00046884
INCLINATION    = 51.6247
RA_OF_ASC_NODE = 38.2251
ARG_OF_PERICENTER = 115.4311
MEAN_ANOMALY   = 244.7173

EPHEMERIS_TYPE = 0
CLASSIFICATION_TYPE = U
NORAD_CAT_ID   = 66907
ELEMENT_SET_NO = 999
REV_AT_EPOCH   = 1602
BSTAR          = .15332922E-2
MEAN_MOTION_DOT = .202137E-2
MEAN_MOTION_DDOT = 0

CCSDS_OMM_VERS = 2.0
CREATION_DATE  = 
ORIGINATOR     = 

OBJECT_NAME    = ISS OBJECT XU
OBJECT_ID      = 1998-067XU
CENTER_NAME    = EARTH
REF_FRAME      = TEME
TIME_SYSTEM    = UTC
MEAN_ELEMENT_THEORY = SGP/SGP4

EPOCH          = 2026-03-15T01:17:47.256288
MEAN_MOTION    = 15.71313389
ECCENTRICITY   = .00049873
INCLINATION    = 51.6248
RA_OF_ASC_NODE = 38.2054
ARG_OF_PERICENTER = 118.2627
MEAN_ANOMALY   = 241.8875

EPHEMERIS_TYPE = 0
CLASSIFICATION_TYPE = U
NORAD_CAT_ID   = 66908
ELEMENT_SET_NO = 999
REV_AT_EPOCH   = 1602
BSTAR          = .15284504E-2
MEAN_MOTION_DOT = .202702E-2
MEAN_MOTION_DDOT = 0

CCSDS_OMM_VERS = 2.0
CREATION_DATE  = 
ORIGINATOR     = 

OBJECT_NAME    = SILVERSAT
OBJECT_ID      = 1998-067XV
CENTER_NAME    = EARTH
REF_FRAME      = TEME
TIME_SYSTEM    = UTC
MEAN_ELEMENT_THEORY = SGP/SGP4

EPOCH          = 2026-03-15T20:52:04.221984
MEAN_MOTION    = 15.75078885
ECCENTRICITY   = .0005544
INCLINATION    = 51.6239
RA_OF_ASC_NODE = 33.1479
ARG_OF_PERICENTER = 121.3817
MEAN_ANOMALY   = 238.7725

EPHEMERIS_TYPE = 0
CLASSIFICATION_TYPE = U
NORAD_CAT_ID   = 66909
ELEMENT_SET_NO = 999
REV_AT_EPOCH   = 1616
BSTAR          = .15562219E-2
MEAN_MOTION_DOT = .24376E-2
MEAN_MOTION_DDOT = 0

CCSDS_OMM_VERS = 2.0
CREATION_DATE  = 
ORIGINATOR     = 

OBJECT_NAME    = ISS OBJECT XW
OBJECT_ID      = 1998-067XW
CENTER_NAME    = EARTH
REF_FRAME      = TEME
TIME_SYSTEM    = UTC
MEAN_ELEMENT_THEORY = SGP/SGP4

EPOCH          = 2026-03-15T04:20:34.782432
MEAN_MOTION    = 15.70370803
ECCENTRICITY   = .00053536
INCLINATION    = 51.6239
RA_OF_ASC_NODE = 37.5499
ARG_OF_PERICENTER = 120.8061
MEAN_ANOMALY   = 239.3464

EPHEMERIS_TYPE = 0
CLASSIFICATION_TYPE = U
NORAD_CAT_ID   = 66910
ELEMENT_SET_NO = 999
REV_AT_EPOCH   = 1604
BSTAR          = .13629257E-2
MEAN_MOTION_DOT = .173075E-2
MEAN_MOTION_DDOT = 0

CCSDS_OMM_VERS = 2.0
CREATION_DATE  = 
ORIGINATOR     = 

OBJECT_NAME    = ISS OBJECT XX
OBJECT_ID      = 1998-067XX
CENTER_NAME    = EARTH
REF_FRAME      = TEME
TIME_SYSTEM    = UTC
MEAN_ELEMENT_THEORY = SGP/SGP4

EPOCH          = 2026-03-15T21:58:56.174016
MEAN_MOTION    = 15.79102895
ECCENTRICITY   = .00070252
INCLINATION    = 51.6205
RA_OF_ASC_NODE = 31.9337
ARG_OF_PERICENTER = 127.0108
MEAN_ANOMALY   = 233.1537

EPHEMERIS_TYPE = 0
CLASSIFICATION_TYPE = U
NORAD_CAT_ID   = 66911
ELEMENT_SET_NO = 999
REV_AT_EPOCH   = 1617
BSTAR          = .16862534E-2
MEAN_MOTION_DOT = .31884E-2
MEAN_MOTION_DDOT = 0

CCSDS_OMM_VERS = 2.0
CREATION_DATE  = 
ORIGINATOR     = 

OBJECT_NAME    = ISS OBJECT XY
OBJECT_ID      = 1998-067XY
CENTER_NAME    = EARTH
REF_FRAME      = TEME
TIME_SYSTEM    = UTC
MEAN_ELEMENT_THEORY = SGP/SGP4

EPOCH          = 2026-03-15T21:44:38.930496
MEAN_MOTION    = 15.64986449
ECCENTRICITY   = .0003508
INCLINATION    = 51.6266
RA_OF_ASC_NODE = 35.6624
ARG_OF_PERICENTER = 126.1583
MEAN_ANOMALY   = 233.9737

EPHEMERIS_TYPE = 0
CLASSIFICATION_TYPE = U
NORAD_CAT_ID   = 66912
ELEMENT_SET_NO = 999
REV_AT_EPOCH   = 1612
BSTAR          = .9317911E-3
MEAN_MOTION_DOT = .93849E-3
MEAN_MOTION_DDOT = 0

